#aV2012  3 20  0  0  0.00000000     288 DD+AD WGS84 FIT  NGA
## 1680 172800.00000000   300.00000000 56006 0.0000000000000
+   31     1  2  3  4  5  6  7  8  9 10 11 12 13 14 15 16 17
+         18 19 20 21 22 23 25 26 27 28 29 30 31 32  0  0  0
+          0  0  0  0  0  0  0  0  0  0  0  0  0  0  0  0  0
+          0  0  0  0  0  0  0  0  0  0  0  0  0  0  0  0  0
+          0  0  0  0  0  0  0  0  0  0  0  0  0  0  0  0  0
++         2  2  2  2  2  2  2  2  2  2  2  2  2  2  2  2  2
++         2  2  2  2  2  2  2  2  2  2  2  2  2  2  2  0  0
++         0  0  0  0  0  0  0  0  0  0  0  0  0  0  0  0  0
++         0  0  0  0  0  0  0  0  0  0  0  0  0  0  0  0  0
++         0  0  0  0  0  0  0  0  0  0  0  0  0  0  0  0  0
%c cc cc ccc ccc cccc cccc cccc cccc ccccc ccccc ccccc ccccc
%c cc cc ccc ccc cccc cccc cccc cccc ccccc ccccc ccccc ccccc
%f  0.0000000  0.000000000  0.00000000000  0.000000000000000
%f  0.0000000  0.000000000  0.00000000000  0.000000000000000
%i    0    0    0    0      0      0      0      0         0
%i    0    0    0    0      0      0      0      0         0
/*      NGA, ST. LOUIS,MO.                                  
/*   EPHEMERIS COMPUTED FROM  1 DAYS OF DATA
/*   EPOCHA SMOOTHER  
/* CCCCCCCCCCCCCCCCCCCCCCCCCCCCCCCCCCCCCCCCCCCCCCCCCCCCCCCCC
*  2012  3 20  0 10  0.00000000                                                 
P  1 -10355.771774 -13624.617310 -20328.585073    235.523625                    
V  1  25678.539715  -2520.497528 -11376.661799      0.067246                    
P  2 -14829.169191  13639.807392  17154.371408    383.458582                    
V  2 -21951.349806   -809.569237 -18956.154161      0.014696                    
P  3   9851.338139 -24409.124981   1650.500551     24.694086                    
V  3   2926.058747   3850.524247  31157.392059      0.051569                    
P  4 -24148.814608   7483.165229   8405.717768    127.985479                    
V  4 -11101.082301  -2445.790872 -28550.353993      0.114933                    
P  5  -3486.072835  18706.952792  18452.510828   -295.647320                    
V  5 -14314.806604 -18786.619579  16440.591599     -0.042608                    
P  6  14032.225053 -21679.087726   5655.599924     31.932236                    
V  6    495.946069   7969.042909  30295.228986     -0.000854                    
P  7 -22714.878904  -7216.382149  11997.332841     65.732447                    
V  7  15004.792750  -2376.939917  26785.045076      0.030062                    
P  8 -26857.192777  -1051.822436   -115.772498      0.853176                    
V  8   -172.941154  -1150.427541  32172.623114      0.000994                    
P  9   5705.345056  14358.765045 -22152.498906    145.874228                    
V  9 -26670.376356   2082.623107  -5690.110624      0.025210                    
P 10 -16567.618098   1405.132666  20538.941880    -32.798728                    
V 10 -13413.828950 -23005.103810  -8743.866816     -0.011943                    
P 11  -4195.824791 -16425.781681 -20810.911193   -243.282244                    
V 11  24719.489289  -7889.952663   1595.320367     -0.036387                    
P 12  10159.592757  23928.784867  -5907.328418     58.793076                    
V 12  -5641.249119  -5273.436196 -30852.982988      0.021214                    
P 13 -11709.233137  -8756.073197  22026.958272    218.487272                    
V 13  15123.042805 -23859.583299  -1518.979989     -0.022372                    
P 14  18442.963711 -10194.699856 -15905.216015    197.595610                    
V 14  -9007.034327  18532.015415 -22213.870460      0.011804                    
P 15   -322.821644  22864.098009 -13342.723604    -91.885499                    
V 15  -9845.763077  14177.954433  24757.277994      0.002910                    
P 16   4340.558151 -17804.524479  19118.526713   -228.066699                    
V 16  13520.972035  20241.332656  16095.430875     -0.015181                    
P 17 -18156.783635   7608.597856 -17542.286477    141.518016                    
V 17   9389.394710 -20751.768723 -18770.866336     -0.024833                    
P 18  19238.513210  14340.240616 -11421.913857    186.961462                    
V 18   5502.943899  14244.231693  25985.162962      0.018002                    
P 19   4891.812558 -23198.638455 -11610.573119   -247.194000                    
V 19  10122.407882 -11161.537701  27025.311016     -0.037899                    
P 20 -13802.762595 -22606.744404  -2595.238034     63.332277                    
V 20   4797.440681    391.453067 -30793.849144     -0.001040                    
P 21  25204.645690   4976.299329   8316.690173   -211.754056                    
V 21  -9658.511556   3332.947534  28346.309303     -0.025016                    
P 22  17258.885350   -779.187311 -20026.065345    143.141941                    
V 22  12821.314878  22554.390561   9964.873294      0.000892                    
P 23  -5081.685445 -18204.960990  18537.136255    222.706325                    
V 23  12448.042245 -20135.472307 -16744.654032     -0.035236                    
P 25  17819.338324  18618.426886   6521.449175     32.348620                    
V 25   2566.255769   8259.252139 -30418.036471      0.002548                    
P 26 -12265.886456  23223.022686  -2702.386420   -180.585788                    
V 26  -3429.356180   1056.571399  32278.829718     -0.562495                    
P 27  -1896.091421  14566.368541 -21468.170860    368.583104                    
V 27 -28679.285471   2140.077342   4325.180654      0.039735                    
P 28 -17194.783159  -3389.334492 -19475.338419    124.377463                    
V 28 -12171.793843 -22804.274847  14098.476352      0.039606                    
P 29  10872.495697  11232.939794  21545.146517    295.343530                    
V 29 -13721.044443  23470.072254  -5287.474414      0.035730                    
P 30  11169.128658 -10175.388491  21489.891243    -91.086074                    
V 30  17750.133396  21839.558563   1105.074296     -0.169664                    
P 31  23637.096884  -7567.621964   9986.107002    221.469188                    
V 31  12345.650136   1249.696391 -28606.433855      0.043988                    
P 32  -6009.195276 -24519.754043  -8765.901594   -422.415430                    
V 32   7540.812169   8794.416270 -28578.909938     -0.047980                    
EOF
